{
    "links": {
        "self": "http://www.neowsapp.com/rest/v1/neo/3692558?api_key=iIulBulltgU6a56xZRHN4H3l9WmuAYTsLGpBGhQ2"
    },
    "id": "3692558",
    "neo_reference_id": "3692558",
    "name": "(2014 TR)",
    "designation": "2014 TR",
    "nasa_jpl_url": "http://ssd.jpl.nasa.gov/sbdb.cgi?sstr=3692558",
    "absolute_magnitude_h": 27.2,
    "estimated_diameter": {
        "kilometers": {
            "estimated_diameter_min": 0.0096506147,
            "estimated_diameter_max": 0.0215794305
        },
        "meters": {
            "estimated_diameter_min": 9.6506146958,
            "estimated_diameter_max": 21.5794304844
        },
        "miles": {
            "estimated_diameter_min": 0.0059966121,
            "estimated_diameter_max": 0.0134088323
        },
        "feet": {
            "estimated_diameter_min": 31.6621227185,
            "estimated_diameter_max": 70.7986587106
        }
    },
    "is_potentially_hazardous_asteroid": false,
    "close_approach_data": [
        {
            "close_approach_date": "2009-12-23",
            "close_approach_date_full": "2009-Dec-23 01:42",
            "epoch_date_close_approach": 1261532520000,
            "relative_velocity": {
                "kilometers_per_second": "15.9033617424",
                "kilometers_per_hour": "57252.1022724863",
                "miles_per_hour": "35574.229881479"
            },
            "miss_distance": {
                "astronomical": "0.3956419355",
                "lunar": "153.9047129095",
                "kilometers": "59187190.833477385",
                "miles": "36777215.001802513"
            },
            "orbiting_body": "Earth"
        },
        {
            "close_approach_date": "2014-10-11",
            "close_approach_date_full": "2014-Oct-11 14:35",
            "epoch_date_close_approach": 1413038100000,
            "relative_velocity": {
                "kilometers_per_second": "4.3804549042",
                "kilometers_per_hour": "15769.6376552198",
                "miles_per_hour": "9798.639575267"
            },
            "miss_distance": {
                "astronomical": "0.02534235",
                "lunar": "9.85817415",
                "kilometers": "3791161.5807945",
                "miles": "2355718.5701841"
            },
            "orbiting_body": "Earth"
        },
        {
            "close_approach_date": "2068-09-02",
            "close_approach_date_full": "2068-Sep-02 18:06",
            "epoch_date_close_approach": 3113834760000,
            "relative_velocity": {
                "kilometers_per_second": "16.6782998718",
                "kilometers_per_hour": "60041.8795384264",
                "miles_per_hour": "37307.6889831961"
            },
            "miss_distance": {
                "astronomical": "0.422528328",
                "lunar": "164.363519592",
                "kilometers": "63209337.88346136",
                "miles": "39276461.287072368"
            },
            "orbiting_body": "Earth"
        }
    ],
    "orbital_data": {
        "orbit_id": "3",
        "orbit_determination_date": "2017-04-06 08:38:16",
        "first_observation_date": "2014-10-01",
        "last_observation_date": "2014-10-03",
        "data_arc_in_days": 2,
        "observations_used": 24,
        "orbit_uncertainty": "8",
        "minimum_orbit_intersection": ".0193455",
        "jupiter_tisserand_invariant": "4.730",
        "epoch_osculation": "2456932.5",
        "eccentricity": ".2804380503279559",
        "semi_major_axis": "1.392082744579416",
        "inclination": "2.052482098223452",
        "ascending_node_longitude": "182.4375597965088",
        "orbital_period": "599.923676730962",
        "perihelion_distance": "1.001689773794375",
        "perihelion_argument": "218.236720898912",
        "aphelion_distance": "1.782475715364457",
        "perihelion_time": "2456962.053073710621",
        "mean_anomaly": "342.2658998994722",
        "mean_motion": ".6000763329790088",
        "equinox": "J2000",
        "orbit_class": {
            "orbit_class_type": "APO",
            "orbit_class_description": "Near-Earth asteroid orbits which cross the Earth’s orbit similar to that of 1862 Apollo",
            "orbit_class_range": "a (semi-major axis) > 1.0 AU; q (perihelion) < 1.017 AU"
        }
    },
    "is_sentry_object": false
}